NORAD_CAT_ID,OBJECT_NAME,OBJECT_TYPE,EPOCH,MEAN_MOTION,ECCENTRICITY,INCLINATION,RA_OF_ASC_NODE,ARG_OF_PERICENTER,MEAN_ANOMALY,BSTAR,MEAN_MOTION_DOT,MEAN_MOTION_DDOT,TLE_LINE0,TLE_LINE1,TLE_LINE2,SEMIMAJOR_AXIS,PERIOD,APOGEE,PERIGEE,DECAYED
52841.0,STARLINK-4065,PAYLOAD,2023-05-18 22:25:21,15.08844396,9.86e-05,53.2162,318.9113,87.1101,273.0004,0.00020622,2.996e-05,0.0,0 STARLINK-4065,1 52841U 22062M   23138.93427611  .00002996  00000-0  20622-3 0  9993,2 52841  53.2162 318.9113 0000986  87.1101 273.0004 15.08844396 51424,6917.867,95.437,540.414,539.05,0.0
52841.0,STARLINK-4065,PAYLOAD,2023-05-19 14:19:13,15.08839212,9.96e-05,53.2159,315.9383,91.8202,268.2904,0.0001224,1.661e-05,0.0,0 STARLINK-4065,1 52841U 22062M   23139.59667925  .00001661  00000-0  12240-3 0  9995,2 52841  53.2159 315.9383 0000996  91.8202 268.2904 15.08839212 51528,6917.883,95.438,540.437,539.059,0.0
52841.0,STARLINK-4065,PAYLOAD,2023-05-20 17:20:47,15.08812727,0.0001349,53.215,310.8853,76.3025,283.8117,0.0017219,0.00027202,0.0,0 STARLINK-4065,1 52841U 22062M   23140.72277632  .00027202  00000-0  17219-2 0  9993,2 52841  53.2150 310.8853 0001349  76.3025 283.8117 15.08812727 51698,6917.964,95.439,540.762,538.896,0.0
52841.0,STARLINK-4065,PAYLOAD,2023-05-20 18:56:09,15.08852347,0.0001159,53.2165,310.5837,77.4609,282.6513,0.00036418,5.515e-05,0.0,0 STARLINK-4065,1 52841U 22062M   23140.78899457  .00005515  00000-0  36418-3 0  9990,2 52841  53.2165 310.5837 0001159  77.4609 282.6513 15.08852347 51219,6917.843,95.437,540.509,538.906,0.0
52841.0,STARLINK-4065,PAYLOAD,2023-05-21 04:28:28,15.08841586,0.0001061,53.2169,308.7992,88.2807,271.8307,0.00010968,1.458e-05,0.0,0 STARLINK-4065,1 52841U 22062M   23141.18643812  .00001458  00000-0  10968-3 0  9991,2 52841  53.2169 308.7992 0001061  88.2807 271.8307 15.08841586 51760,6917.876,95.437,540.475,539.007,0.0
52841.0,STARLINK-4065,PAYLOAD,2023-05-21 10:50:00,15.08839593,0.000114,53.2142,307.6172,77.7039,282.408,3.9901e-05,3.47e-06,0.0,0 STARLINK-4065,1 52841U 22062M   23141.45139982  .00000347  00000-0  39901-4 0  9994,2 52841  53.2142 307.6172 0001140  77.7039 282.4080 15.08839593 51319,6917.882,95.438,540.535,538.958,0.0
52841.0,STARLINK-4065,PAYLOAD,2023-05-21 17:11:34,15.08828286,7.91e-05,53.2161,306.4242,85.6252,274.483,-0.00012577,-2.288e-05,0.0,0 STARLINK-4065,1 52841U 22062M   23141.71636712 -.00002288  00000-0 -12577-3 0  9993,2 52841  53.2161 306.4242 0000791  85.6252 274.4830 15.08828286 51840,6917.916,95.438,540.328,539.234,0.0
52841.0,STARLINK-4065,PAYLOAD,2023-05-21 18:46:57,15.08833492,0.0001006,53.2159,306.1258,87.0724,273.0383,-3.9334e-05,-9.14e-06,0.0,0 STARLINK-4065,1 52841U 22062M   23141.78260562 -.00000914  00000-0 -39334-4 0  9991,2 52841  53.2159 306.1258 0001006  87.0724 273.0383 15.08833492 51361,6917.9,95.438,540.461,539.069,0.0
52841.0,STARLINK-4065,PAYLOAD,2023-05-22 04:19:15,15.0884073,9.72e-05,53.2161,304.3415,88.8543,271.256,0.00016044,2.267e-05,0.0,0 STARLINK-4065,1 52841U 22062M   23142.18004414  .00002267  00000-0  16044-3 0  9991,2 52841  53.2161 304.3415 0000972  88.8543 271.2560 15.08840730 51919,6917.878,95.438,540.416,539.071,0.0
52841.0,STARLINK-4065,PAYLOAD,2023-05-22 20:13:06,15.08856237,9.26e-05,53.2163,301.3662,101.7234,258.3862,0.00048459,7.436e-05,0.0,0 STARLINK-4065,1 52841U 22062M   23142.84243819  .00007436  00000-0  48459-3 0  9996,2 52841  53.2163 301.3662 0000926 101.7234 258.3862 15.08856237 51520,6917.831,95.437,540.336,539.055,0.0
52841.0,STARLINK-4065,PAYLOAD,2023-05-23 04:10:03,15.08836555,0.0001505,53.2166,299.8797,92.7792,267.3372,0.00013111,1.799e-05,0.0,0 STARLINK-4065,1 52841U 22062M   23143.17364646  .00001799  00000-0  13111-3 0  9998,2 52841  53.2166 299.8797 0001505  92.7792 267.3372 15.08836555 52062,6917.891,95.438,540.797,538.715,0.0
52841.0,STARLINK-4065,PAYLOAD,2023-05-23 13:42:21,15.08841658,0.0001324,53.216,298.0963,83.1724,276.9419,0.00028331,4.224e-05,0.0,0 STARLINK-4065,1 52841U 22062M   23143.57108759  .00004224  00000-0  28331-3 0  9999,2 52841  53.2160 298.0963 0001324  83.1724 276.9419 15.08841658 51630,6917.875,95.437,540.656,538.824,0.0
52841.0,STARLINK-4065,PAYLOAD,2023-05-24 10:22:22,15.08842789,0.000105,53.2174,294.2305,83.6483,276.4628,0.0001933,2.79e-05,0.0,0 STARLINK-4065,1 52841U 22062M   23144.43220672  .00002790  00000-0  19330-3 0  9999,2 52841  53.2174 294.2305 0001050  83.6483 276.4628 15.08842789 52258,6917.872,95.437,540.463,539.01,0.0
52841.0,STARLINK-4065,PAYLOAD,2023-05-24 15:08:32,15.08843424,9.59e-05,53.2171,293.3391,80.3558,279.7543,0.00015706,2.213e-05,0.0,0 STARLINK-4065,1 52841U 22062M   23144.63092635  .00002213  00000-0  15706-3 0  9990,2 52841  53.2171 293.3391 0000959  80.3558 279.7543 15.08843424 51791,6917.87,95.437,540.398,539.071,0.0
52841.0,STARLINK-4065,PAYLOAD,2023-05-25 16:34:42,15.08844796,0.0001045,53.2167,288.5809,77.3134,282.7975,0.00019965,2.891e-05,0.0,0 STARLINK-4065,1 52841U 22062M   23145.69076600  .00002891  00000-0  19965-3 0  9994,2 52841  53.2167 288.5809 0001045  77.3134 282.7975 15.08844796 52448,6917.866,95.437,540.454,539.008,0.0
52841.0,STARLINK-4065,PAYLOAD,2023-05-26 13:14:43,15.08840688,9.98e-05,53.2175,284.719,95.8988,264.2118,6.2167e-05,7.02e-06,0.0,0 STARLINK-4065,1 52841U 22062M   23146.55188663  .00000702  00000-0  62167-4 0  9995,2 52841  53.2175 284.7190 0000998  95.8988 264.2118 15.08840688 52086,6917.878,95.438,540.434,539.053,0.0
52841.0,STARLINK-4065,PAYLOAD,2023-05-26 16:25:28,15.088509,0.0001061,53.2174,284.1243,101.0465,259.0647,-0.00020573,-3.561e-05,0.0,0 STARLINK-4065,1 52841U 22062M   23146.68436037 -.00003561  00000-0 -20573-3 0  9992,2 52841  53.2174 284.1243 0001061 101.0465 259.0647 15.08850900 52100,6917.847,95.437,540.446,538.978,0.0
52841.0,STARLINK-4065,PAYLOAD,2023-05-27 01:57:48,15.08838153,0.0001122,53.2174,282.3401,101.972,258.1398,-7.4455e-06,-4.06e-06,0.0,0 STARLINK-4065,1 52841U 22062M   23147.08180758 -.00000406  00000-0 -74455-5 0  9998,2 52841  53.2174 282.3401 0001122 101.9720 258.1398 15.08838153 52656,6917.886,95.438,540.527,538.975,0.0
52841.0,STARLINK-4065,PAYLOAD,2023-05-27 16:16:16,15.08838381,0.0001033,53.2178,279.6614,95.934,264.177,4.5707e-05,4.4e-06,0.0,0 STARLINK-4065,1 52841U 22062M   23147.67797116  .00000440  00000-0  45707-4 0  9998,2 52841  53.2178 279.6614 0001033  95.9340 264.1770 15.08838381 52256,6917.885,95.438,540.465,539.036,0.0
52841.0,STARLINK-4065,PAYLOAD,2023-05-28 01:48:35,15.08838586,9.91e-05,53.2178,277.8771,87.5332,272.5773,7.5679e-05,9.17e-06,0.0,0 STARLINK-4065,1 52841U 22062M   23148.07541086  .00000917  00000-0  75679-4 0  9996,2 52841  53.2178 277.8771 0000991  87.5332 272.5773 15.08838586 52310,6917.885,95.438,540.435,539.064,0.0
52841.0,STARLINK-4065,PAYLOAD,2023-05-28 08:10:07,15.0884132,9.67e-05,53.2176,276.6875,87.1495,272.9608,6.9997e-05,8.26e-06,0.0,0 STARLINK-4065,1 52841U 22062M   23148.34037001  .00000826  00000-0  69997-4 0  9998,2 52841  53.2176 276.6875 0000967  87.1495 272.9608 15.08841320 52848,6917.876,95.437,540.41,539.072,0.0
52841.0,STARLINK-4065,PAYLOAD,2023-05-28 16:07:03,15.0884728,9.89e-05,53.2177,275.201,86.0187,274.0918,0.00011553,1.552e-05,0.0,0 STARLINK-4065,1 52841U 22062M   23148.67156480  .00001552  00000-0  11553-3 0  9998,2 52841  53.2177 275.2010 0000989  86.0187 274.0918 15.08847280 52405,6917.858,95.437,540.407,539.039,0.0
52841.0,STARLINK-4065,PAYLOAD,2023-05-29 14:22:26,15.08872463,7.88e-05,53.2165,271.0381,75.4211,284.6869,-0.00038728,-6.451e-05,0.0,0 STARLINK-4065,1 52841U 22062M   23149.59891903 -.00006451  00000-0 -38728-3 0  9994,2 52841  53.2165 271.0381 0000788  75.4211 284.6869 15.08872463 52542,6917.781,95.436,540.191,539.101,0.0
52841.0,STARLINK-4065,PAYLOAD,2023-05-29 17:33:13,15.08840566,9.49e-05,53.2163,270.4437,82.6468,277.4632,3.4946e-05,2.68e-06,0.0,0 STARLINK-4065,1 52841U 22062M   23149.73140972  .00000268  00000-0  34946-4 0  9990,2 52841  53.2163 270.4437 0000949  82.6468 277.4632 15.08840566 53052,6917.879,95.438,540.4,539.087,0.0
52841.0,STARLINK-4065,PAYLOAD,2023-05-30 01:30:12,15.08810255,0.0001048,53.2165,268.957,84.6644,275.4468,-0.00018776,-3.272e-05,0.0,0 STARLINK-4065,1 52841U 22062M   23150.06263926 -.00003272  00000-0 -18776-3 0  9995,2 52841  53.2165 268.9570 0001048  84.6644 275.4468 15.08810255 53106,6917.971,95.439,540.561,539.111,0.0
52841.0,STARLINK-4065,PAYLOAD,2023-05-30 12:37:53,15.08824618,0.0001082,53.2168,266.8753,81.8713,278.2402,-7.8717e-05,-1.54e-05,0.0,0 STARLINK-4065,1 52841U 22062M   23150.52631262 -.00001540  00000-0 -78717-4 0  9996,2 52841  53.2168 266.8753 0001082  81.8713 278.2402 15.08824618 52682,6917.927,95.439,540.541,539.044,0.0
52841.0,STARLINK-4065,PAYLOAD,2023-05-30 14:13:16,15.08828281,0.0001014,53.2164,266.5763,95.9495,264.1613,-7.8092e-05,-1.53e-05,0.0,0 STARLINK-4065,1 52841U 22062M   23150.59255009 -.00001530  00000-0 -78092-4 0  9999,2 52841  53.2164 266.5763 0001014  95.9495 264.1613 15.08828281 53188,6917.916,95.438,540.483,539.08,0.0
52841.0,STARLINK-4065,PAYLOAD,2023-05-31 10:53:15,15.0884696,9.58e-05,53.2163,262.7115,77.278,282.8319,0.00018574,2.67e-05,0.0,0 STARLINK-4065,1 52841U 22062M   23151.45365424  .00002670  00000-0  18574-3 0  9990,2 52841  53.2163 262.7115 0000958  77.2780 282.8319 15.08846960 53311,6917.859,95.437,540.387,539.061,0.0
52841.0,STARLINK-4065,PAYLOAD,2023-05-31 14:04:02,15.08855916,0.0001066,53.2156,262.1167,71.9387,288.1722,0.00045076,6.896e-05,0.0,0 STARLINK-4065,1 52841U 22062M   23151.58613822  .00006896  00000-0  45076-3 0  9993,2 52841  53.2156 262.1167 0001066  71.9387 288.1722 15.08855916 52844,6917.832,95.437,540.434,538.959,0.0
52841.0,STARLINK-4065,PAYLOAD,2023-05-31 17:14:48,15.08862083,9.82e-05,53.2156,261.5209,81.819,278.2913,0.00081059,0.00012644,0.0,0 STARLINK-4065,1 52841U 22062M   23151.71861978  .00012644  00000-0  81059-3 0  9994,2 52841  53.2156 261.5209 0000982  81.8190 278.2913 15.08862083 52869,6917.813,95.436,540.357,538.999,0.0
